{
  "norad_id": 57975,
  "name": "STARLINK-30503",
  "history": [
    {
      "epoch": "2026-03-28T20:33:42.646176Z",
      "apogee_km": 483.37678217668963,
      "perigee_km": 482.9404037769764,
      "latitude_deg": -4.40362535002958e-05,
      "longitude_deg": 93.3710797125497,
      "height_km": 483.1436631935289,
      "semi_major_axis_km": 6861.295592976833,
      "eccentricity": 3.18e-05,
      "inclination_deg": 42.9999,
      "raan_deg": 228.07,
      "arg_perigee_deg": 164.0442,
      "mean_anomaly_deg": 196.0419,
      "mean_motion_rev_day": 15.27543433
    },
    {
      "epoch": "2026-03-29T20:06:01.719360Z",
      "apogee_km": 483.89396811477945,
      "perigee_km": 482.1752446273831,
      "latitude_deg": 3.379780260873871e-05,
      "longitude_deg": 93.78719424364624,
      "height_km": 482.87599479418907,
      "semi_major_axis_km": 6861.171606371081,
      "eccentricity": 0.00012525,
      "inclination_deg": 43.001,
      "raan_deg": 222.5322,
      "arg_perigee_deg": 265.6812,
      "mean_anomaly_deg": 94.3897,
      "mean_motion_rev_day": 15.27584839
    },
    {
      "epoch": "2026-03-30T14:55:53.397120Z",
      "apogee_km": 483.9262479184208,
      "perigee_km": 482.05960891009727,
      "latitude_deg": -3.2422551974158668e-06,
      "longitude_deg": 166.11946896844552,
      "height_km": 482.8293212823185,
      "semi_major_axis_km": 6861.129928414259,
      "eccentricity": 0.00013603,
      "inclination_deg": 42.9995,
      "raan_deg": 218.1032,
      "arg_perigee_deg": 266.3269,
      "mean_anomaly_deg": 93.7427,
      "mean_motion_rev_day": 15.27598758
    },
    {
      "epoch": "2026-03-30T19:38:21.670368Z",
      "apogee_km": 484.10113447888216,
      "perigee_km": 481.95317842806344,
      "latitude_deg": 3.9878938265308404e-05,
      "longitude_deg": 94.19956529989916,
      "height_km": 483.1419284212358,
      "semi_major_axis_km": 6861.164156453473,
      "eccentricity": 0.00015653,
      "inclination_deg": 43.0008,
      "raan_deg": 216.9944,
      "arg_perigee_deg": 251.6583,
      "mean_anomaly_deg": 108.4099,
      "mean_motion_rev_day": 15.27587327
    },
    {
      "epoch": "2026-03-31T14:28:12.464256Z",
      "apogee_km": 483.8211502846234,
      "perigee_km": 482.0688299443491,
      "latitude_deg": -1.408007160481842e-05,
      "longitude_deg": 166.53301511972168,
      "height_km": 482.9673574205561,
      "semi_major_axis_km": 6861.081990114486,
      "eccentricity": 0.0001277,
      "inclination_deg": 43.0003,
      "raan_deg": 212.5629,
      "arg_perigee_deg": 253.7064,
      "mean_anomaly_deg": 106.3647,
      "mean_motion_rev_day": 15.27614768
    },
    {
      "epoch": "2026-04-01T14:00:35.032320Z",
      "apogee_km": 484.05601398885483,
      "perigee_km": 482.11566017052974,
      "latitude_deg": 3.106878981221366e-05,
      "longitude_deg": 166.93399383032082,
      "height_km": 483.0746138008012,
      "semi_major_axis_km": 6861.222837079692,
      "eccentricity": 0.0001414,
      "inclination_deg": 43.0023,
      "raan_deg": 207.0246,
      "arg_perigee_deg": 257.3861,
      "mean_anomaly_deg": 102.6833,
      "mean_motion_rev_day": 15.2756773
    },
    {
      "epoch": "2026-04-02T18:15:23.715360Z",
      "apogee_km": 483.49685184376267,
      "perigee_km": 482.670486426372,
      "latitude_deg": -4.403975634692782e-05,
      "longitude_deg": 95.42311160734572,
      "height_km": 482.9986967993096,
      "semi_major_axis_km": 6861.2206691350675,
      "eccentricity": 6.022e-05,
      "inclination_deg": 43.0003,
      "raan_deg": 200.3767,
      "arg_perigee_deg": 250.3352,
      "mean_anomaly_deg": 109.7434,
      "mean_motion_rev_day": 15.27568454
    },
    {
      "epoch": "2026-04-03T16:13:36.370560Z",
      "apogee_km": 483.99446483595966,
      "perigee_km": 482.3436346003973,
      "latitude_deg": 3.972376284035895e-05,
      "longitude_deg": 119.79998773467653,
      "height_km": 483.15747979196584,
      "semi_major_axis_km": 6861.306049718178,
      "eccentricity": 0.0001203,
      "inclination_deg": 43.0027,
      "raan_deg": 195.2085,
      "arg_perigee_deg": 255.1419,
      "mean_anomaly_deg": 104.93,
      "mean_motion_rev_day": 15.27539941
    },
    {
      "epoch": "2026-04-04T15:45:57.338496Z",
      "apogee_km": 483.4318642167491,
      "perigee_km": 482.7073208005804,
      "latitude_deg": -2.2747657754064425e-05,
      "longitude_deg": 120.20703520958487,
      "height_km": 483.0053016252427,
      "semi_major_axis_km": 6861.2065925086645,
      "eccentricity": 5.28e-05,
      "inclination_deg": 43.0002,
      "raan_deg": 189.6697,
      "arg_perigee_deg": 243.8203,
      "mean_anomaly_deg": 116.2594,
      "mean_motion_rev_day": 15.27573155
    },
    {
      "epoch": "2026-04-05T07:27:30.287808Z",
      "apogee_km": 483.9616468993254,
      "perigee_km": 482.08031738062346,
      "latitude_deg": -3.8267572255472126e-05,
      "longitude_deg": -119.5192385188625,
      "height_km": 483.4793727994263,
      "semi_major_axis_km": 6861.157982139975,
      "eccentricity": 0.0001371,
      "inclination_deg": 43.0015,
      "raan_deg": 185.9752,
      "arg_perigee_deg": 223.529,
      "mean_anomaly_deg": 136.5453,
      "mean_motion_rev_day": 15.27589389
    },
    {
      "epoch": "2026-04-06T06:59:51.778464Z",
      "apogee_km": 484.6629659218679,
      "perigee_km": 481.4933589654256,
      "latitude_deg": 1.7572210320168125e-05,
      "longitude_deg": -119.10995015402499,
      "height_km": 482.52592976733007,
      "semi_major_axis_km": 6861.2151624436465,
      "eccentricity": 0.00023098,
      "inclination_deg": 43.0054,
      "raan_deg": 180.4407,
      "arg_perigee_deg": 282.0275,
      "mean_anomaly_deg": 78.0318,
      "mean_motion_rev_day": 15.27570293
    },
    {
      "epoch": "2026-04-07T06:32:12.081120Z",
      "apogee_km": 484.09808444666487,
      "perigee_km": 481.9815486223006,
      "latitude_deg": 5.51603220274683e-05,
      "longitude_deg": -118.70441829450772,
      "height_km": 483.04794068988394,
      "semi_major_axis_km": 6861.176816534482,
      "eccentricity": 0.00015424,
      "inclination_deg": 43.0021,
      "raan_deg": 174.8975,
      "arg_perigee_deg": 257.3841,
      "mean_anomaly_deg": 102.6839,
      "mean_motion_rev_day": 15.27583099
    },
    {
      "epoch": "2026-04-08T13:55:20.309088Z",
      "apogee_km": 484.2887746599672,
      "perigee_km": 481.8304079213085,
      "latitude_deg": -3.2514231891988536e-05,
      "longitude_deg": 121.84023952499432,
      "height_km": 482.7992317652955,
      "semi_major_axis_km": 6861.196591290638,
      "eccentricity": 0.00017915,
      "inclination_deg": 43.005,
      "raan_deg": 167.5155,
      "arg_perigee_deg": 271.7688,
      "mean_anomaly_deg": 88.2958,
      "mean_motion_rev_day": 15.27576495
    },
    {
      "epoch": "2026-04-09T05:36:53.838144Z",
      "apogee_km": 484.236394245735,
      "perigee_km": 481.8495269610403,
      "latitude_deg": 3.922574230575279e-05,
      "longitude_deg": -117.8872644691048,
      "height_km": 482.85182769733774,
      "semi_major_axis_km": 6861.179960603387,
      "eccentricity": 0.00017394,
      "inclination_deg": 43.0049,
      "raan_deg": 163.8221,
      "arg_perigee_deg": 268.4945,
      "mean_anomaly_deg": 91.5708,
      "mean_motion_rev_day": 15.27582049
    },
    {
      "epoch": "2026-04-10T03:35:05.221536Z",
      "apogee_km": 484.22174631014695,
      "perigee_km": 481.8728884709317,
      "latitude_deg": -3.162742671487555e-06,
      "longitude_deg": -93.50651185554088,
      "height_km": 482.908348956049,
      "semi_major_axis_km": 6861.184317390539,
      "eccentricity": 0.00017117,
      "inclination_deg": 43.0053,
      "raan_deg": 158.6526,
      "arg_perigee_deg": 265.9228,
      "mean_anomaly_deg": 94.1428,
      "mean_motion_rev_day": 15.27580594
    }
  ]
}